{
    "links": {
        "self": "http://www.neowsapp.com/rest/v1/neo/3630816?api_key=iIulBulltgU6a56xZRHN4H3l9WmuAYTsLGpBGhQ2"
    },
    "id": "3630816",
    "neo_reference_id": "3630816",
    "name": "(2013 ET11)",
    "designation": "2013 ET11",
    "nasa_jpl_url": "http://ssd.jpl.nasa.gov/sbdb.cgi?sstr=3630816",
    "absolute_magnitude_h": 25.4,
    "estimated_diameter": {
        "kilometers": {
            "estimated_diameter_min": 0.022108281,
            "estimated_diameter_max": 0.0494356193
        },
        "meters": {
            "estimated_diameter_min": 22.1082810359,
            "estimated_diameter_max": 49.435619262
        },
        "miles": {
            "estimated_diameter_min": 0.0137374447,
            "estimated_diameter_max": 0.0307178602
        },
        "feet": {
            "estimated_diameter_min": 72.5337327539,
            "estimated_diameter_max": 162.1903570994
        }
    },
    "is_potentially_hazardous_asteroid": false,
    "close_approach_data": [
        {
            "close_approach_date": "2013-03-16",
            "close_approach_date_full": "2013-Mar-16 12:54",
            "epoch_date_close_approach": 1363438440000,
            "relative_velocity": {
                "kilometers_per_second": "12.754110991",
                "kilometers_per_hour": "45914.7995674783",
                "miles_per_hour": "28529.6708756923"
            },
            "miss_distance": {
                "astronomical": "0.0381658133",
                "lunar": "14.8465013737",
                "kilometers": "5709524.376497671",
                "miles": "3547733.9369470198"
            },
            "orbiting_body": "Earth"
        }
    ],
    "orbital_data": {
        "orbit_id": "5",
        "orbit_determination_date": "2017-04-06 08:46:34",
        "first_observation_date": "2013-03-05",
        "last_observation_date": "2013-03-13",
        "data_arc_in_days": 8,
        "observations_used": 12,
        "orbit_uncertainty": "9",
        "minimum_orbit_intersection": ".00679664",
        "jupiter_tisserand_invariant": "2.900",
        "epoch_osculation": "2456357.5",
        "eccentricity": ".6751533320343536",
        "semi_major_axis": "2.890357708986035",
        "inclination": "1.345598653810693",
        "ascending_node_longitude": "198.9177968272048",
        "orbital_period": "1794.840323757199",
        "perihelion_distance": ".938923070992933",
        "perihelion_argument": "14.1250454003011",
        "aphelion_distance": "4.841792346979138",
        "perihelion_time": "2456394.577435274884",
        "mean_anomaly": "352.5631954429145",
        "mean_motion": ".2005749454338088",
        "equinox": "J2000",
        "orbit_class": {
            "orbit_class_type": "APO",
            "orbit_class_description": "Near-Earth asteroid orbits which cross the Earth’s orbit similar to that of 1862 Apollo",
            "orbit_class_range": "a (semi-major axis) > 1.0 AU; q (perihelion) < 1.017 AU"
        }
    },
    "is_sentry_object": false
}